STARLINK-30388          
1 57784U 23134P   24243.94665078  .00001300  00000+0  11129-3 0  9994
2 57784  43.0056 337.2120 0001265 257.0095 103.0606 15.02541602 55878
STARLINK-30381          
1 57785U 23134Q   24242.59376555  .00000017  00000+0  16318-4 0  9994
2 57785  43.0038 344.1694 0000497 258.6556 101.4231 15.02538183 55671
STARLINK-30382          
1 57786U 23134R   24243.54446006 -.00002306  00000+0 -15572-3 0  9995
2 57786  43.0072 339.3529 0002246 253.6982 106.3614 15.02524611 55811
STARLINK-30378          
1 57787U 23134S   24242.59044234  .00001197  00000+0  10366-3 0  9998
2 57787  43.0065 344.2320 0000858 276.4839  83.5906 15.02542302 55670
STARLINK-30387          
1 57788U 23134T   24243.91032246  .00002081  00000+0  16903-3 0  9992
2 57788  43.0125 324.1350 0000141 200.1555 159.9282 15.02536702 56024
STARLINK-30372          
1 57789U 23134U   24243.54112729 -.00001432  00000+0 -91008-4 0  9998
2 57789  43.0070 339.3193 0001309 266.4907  93.5786 15.02525408 55819
STARLINK-30373          
1 57790U 23134V   24243.55444804 -.00001364  00000+0 -85927-4 0  9990
2 57790  43.0031 339.4063 0000549 243.2175 116.8611 15.02523964 55811
STARLINK-30367          
1 57791U 23134W   24243.53113309  .00000266  00000+0  34793-4 0  9995
2 57791  43.0038 339.2500 0001127 282.8000  77.2716 15.02531057 55663
STARLINK-30304          
1 57808U 23138A   24242.60190194 -.00008321  00000+0 -19239-3 0  9991
2 57808  43.0055 351.6333 0000821 242.1858 117.8915 15.40662625 55225
STARLINK-30374          
1 57809U 23138B   24243.67996096  .00000337  00000+0  40059-4 0  9997
2 57809  43.0028  17.6251 0001339 272.7693  87.2996 15.02533396 55077
STARLINK-30394          
1 57810U 23138C   24243.67663113 -.00000022  00000+0  13473-4 0  9992
2 57810  43.0054  17.5995 0001245 281.5733  78.4969 15.02534911 54975
STARLINK-30379          
1 57811U 23138D   24243.67330452 -.00000237  00000+0 -24318-5 0  9990
2 57811  43.0036  17.5761 0001528 279.1179  80.9491 15.02531696 55075
STARLINK-30395          
1 57812U 23138E   24243.66997299 -.00000702  00000+0 -36888-4 0  9999
2 57812  43.0029  17.5514 0001703 278.7251  81.3398 15.02528568 55070
STARLINK-30403          
1 57813U 23138F   24243.66663779  .00002197  00000+0  17769-3 0  9997
2 57813  43.0032  17.5244 0001280 259.9262 100.1436 15.02531210 54977
STARLINK-30413          
1 57814U 23138G   24243.64665952  .00000427  00000+0  46706-4 0  9999
2 57814  43.0032  17.3766 0000968 263.9294  96.1438 15.02537902 55079
STARLINK-30398          
1 57815U 23138H   24243.66331289 -.00001110  00000+0 -67128-4 0  9998
2 57815  43.0041  17.5015 0000663 263.6279  96.4488 15.02534810 54972
STARLINK-30386          
1 57816U 23138J   24243.65998312 -.00000225  00000+0 -15984-5 0  9994
2 57816  43.0060  17.4750 0002117 266.5287  93.5313 15.02526886 54896
STARLINK-30391          
1 57817U 23138K   24243.65664751  .00000113  00000+0  23408-4 0  9995
2 57817  43.0033  17.4499 0001264 262.6196  97.4503 15.02534281 55078
STARLINK-30401          
1 57818U 23138L   24243.65332368 -.00000756  00000+0 -40898-4 0  9999
2 57818  43.0018  17.4253 0000866 266.3574  93.7169 15.02529446 54970
STARLINK-30390          
1 57819U 23138M   24243.65000051 -.00001076  00000+0 -64605-4 0  9999
2 57819  43.0026  17.4004 0000913 265.4130  94.6608 15.02526821 55013
STARLINK-30409          
1 57820U 23138N   24243.63667599 -.00001203  00000+0 -73970-4 0  9992
2 57820  43.0039  17.2813 0001719 275.4095  84.6551 15.02526980 55013
STARLINK-30415          
1 57821U 23138P   24243.64111769 -.00000105  00000+0  72542-5 0  9991
2 57821  43.0035  17.3249 0000597 132.8323 227.2569 15.02531648 55063
STARLINK-30407          
1 57823U 23138R   24243.64333314 -.00000256  00000+0 -39143-5 0  9993
2 57823  43.0068  17.3382 0000945 259.7377 100.3359 15.02533899 55062
STARLINK-30408          
1 57824U 23138S   24243.64000244  .00000257  00000+0  34118-4 0  9992
2 57824  43.0052  17.3253 0000372 303.4076  56.6731 15.02536638 55061
STARLINK-30377          
1 57825U 23138T   24242.69265868 -.00000475  00000+0 -20093-4 0  9993
2 57825  43.0252  22.2592 0000481 138.6123 221.4756 15.02547727 54820
STARLINK-30422          
1 57826U 23138U   24242.69599033  .00001022  00000+0  90692-4 0  9997
2 57826  43.0051  22.2831 0000971 257.3374 102.7360 15.02535412 54926
STARLINK-30402          
1 57827U 23138V   24242.70043817  .00000360  00000+0  41754-4 0  9993
2 57827  43.0126  22.3120 0000891 267.6435  92.4305 15.02521428 54921
STARLINK-30411          
1 57828U 23138W   24242.70265433 -.00000641  00000+0 -32355-4 0  9995
2 57828  43.0046  22.3058 0001054 269.1203  90.9519 15.02530585 54862
STARLINK-30418          
1 57829U 23138X   24243.68651002 -.00000083  00000+0  89444-5 0  9996
2 57829  43.0068  16.8153 0001593 260.7695  99.2967 15.02532522 54919
STARLINK-30285          
1 57840U 23141A   24243.57248112  .00003218  00000+0  10688-3 0  9999
2 57840  53.1627 348.6681 0001212  77.3384 282.7754 15.34235319 55162
STARLINK-30410          
1 57841U 23141B   24243.55857557  .00000717  00000+0  32526-4 0  9994
2 57841  53.1659 349.0971 0002299  98.6800 261.4463 15.34226108 55156
STARLINK-30435          
1 57842U 23141C   24243.55425865  .00005272  00000+0  16812-3 0  9998
2 57842  53.1633 349.0970 0003186 120.6251 239.5066 15.34199094 55158
STARLINK-30423          
1 57843U 23141D   24243.87063075  .00009818  00000+0  30262-3 0  9990
2 57843  53.1619 347.4801 0001815 145.0138 215.0984 15.34263036 55202
STARLINK-30292          
1 57844U 23141E   24243.59156673  .00027276  00000+0  82032-3 0  9997
2 57844  53.1606 349.5008 0001194  53.8856 306.2256 15.34212316 55158
STARLINK-30419          
1 57845U 23141F   24243.43681634 -.00000745  00000+0 -14254-4 0  9997
2 57845  53.1443 333.3038 0001239  80.3698 279.7441 15.28002951 55358
STARLINK-30420          
1 57846U 23141G   24243.56283147  .00000365  00000+0  22044-4 0  9991
2 57846  53.1619 346.1200 0001309  74.8485 285.2662 15.34219994 55190
STARLINK-30416          
1 57847U 23141H   24243.56782433 -.00000355  00000+0  60617-6 0  9994
2 57847  53.1622 348.6044 0001523  88.9911 271.1266 15.34216630 55161
STARLINK-30426          
1 57848U 23141J   24242.81871246  .00010597  00000+0  32628-3 0  9999
2 57848  53.1621 352.2593 0001955  39.8777 320.2368 15.34209489 55045
STARLINK-30430          
1 57849U 23141K   24243.56815641  .00000228  00000+0  17970-4 0  9994
2 57849  53.1613 348.6519 0001588  98.6108 261.5074 15.34224224 55165
STARLINK-30425          
1 57850U 23141L   24243.59575970  .00005236  00000+0  16697-3 0  9995
2 57850  53.1623 348.5816 0001167 111.5563 248.5563 15.34211079 55162
STARLINK-30405          
1 57851U 23141M   24242.04621995  .00001600  00000+0  58773-4 0  9997
2 57851  53.1621 355.4550 0001542 109.0741 251.0428 15.34227491 54938
STARLINK-30431          
1 57852U 23141N   24242.57225918 -.00004627  00000+0 -12678-3 0  9998
2 57852  53.1623 354.5187 0000229 251.5630 108.5348 15.34188065 54983
STARLINK-30404          
1 57853U 23141P   24242.57257548 -.00007284  00000+0 -20605-3 0  9994
2 57853  53.1610 354.5190 0000519 144.7375 215.3662 15.34191090 54994
STARLINK-30412          
1 57854U 23141Q   24242.04175717  .00006929  00000+0  21716-3 0  9991
2 57854  53.1599 356.8932 0001375  83.2038 276.9121 15.34232318 54918
STARLINK-30392          
1 57855U 23141R   24242.04208385  .00004812  00000+0  15421-3 0  9995
2 57855  53.1601 356.8947 0001820 100.9626 259.1581 15.34246465 54915
STARLINK-30291          
1 57856U 23141S   24243.59122631  .00004895  00000+0  15676-3 0  9999
2 57856  53.1606 349.4964 0001214 342.2563  17.8397 15.34222292 55159
STARLINK-30424          
1 57857U 23141T   24243.54636573  .00005540  00000+0  17592-3 0  9997
2 57857  53.1577 337.4505 0000719  54.4834 305.6236 15.34227117 55327
STARLINK-30290          
1 57858U 23141U   24243.59621862  .00000873  00000+0  37217-4 0  9999
2 57858  53.1612 349.5310 0004880  87.0672 273.0889 15.34228155 55157
STARLINK-30414          
1 57859U 23141V   24243.60088299 -.00000952  00000+0 -17167-4 0  9995
2 57859  53.1625 349.5582 0000838 120.9409 239.1676 15.34211422 55153
STARLINK-30272          
1 57860U 23141W   24243.58655777 -.00002618  00000+0 -66692-4 0  9993
2 57860  53.1607 349.4661 0003116  87.1209 273.0150 15.34231274 55157
STARLINK-30432          
1 57864U 23144A   24243.78854445  .00001928  00000+0  15766-3 0  9991
2 57864  43.0015  68.5168 0000623 263.4323  96.6448 15.02548689 53949
STARLINK-30427          
1 57865U 23144B   24243.78522226 -.00000248  00000+0 -32632-5 0  9990
2 57865  42.9999  68.4889 0001652 267.8040  92.2613 15.02534333 53942
STARLINK-30393          
1 57866U 23144C   24242.79792161  .00000325  00000+0  39116-4 0  9995
2 57866  43.0021  73.1283 0000416 311.4810  48.5997 15.02535821 53807
STARLINK-30439          
1 57867U 23144D   24243.78189209 -.00001077  00000+0 -64661-4 0  9999
2 57867  43.0079  68.4717 0002270 274.8561  85.2022 15.02529146 53995
STARLINK-30442          
1 57868U 23144E   24243.77855760 -.00000344  00000+0 -10427-4 0  9998
2 57868  43.0026  68.4011 0001245 270.1607  89.9093 15.02529952 53945
STARLINK-30441          
1 57869U 23144F   24243.79187518 -.00000267  00000+0 -46617-5 0  9995
2 57869  43.0084  68.4955 0001323 274.1207  85.9485 15.02536188 53944
STARLINK-30460          
1 57870U 23144G   24243.24341937 -.00001589  00000+0 -10262-3 0  9997
2 57870  43.0036  71.3074 0001237 270.9049  89.1651 15.02522653 53910
STARLINK-30444          
1 57871U 23144H   24243.23674851  .00000118  00000+0  23821-4 0  9992
2 57871  43.0015  71.2558 0001164 268.0571  92.0138 15.02535394 53639
STARLINK-30446          
1 57872U 23144J   24242.79821202 -.00001151  00000+0 -70172-4 0  9998
2 57872  43.0065  60.3476 0000513 230.6409 129.4388 15.02537113 53728
